CCSDS_OMM_VERS = 2.0
CREATION_DATE  = 
ORIGINATOR     = 

OBJECT_NAME    = GSLV R/B
OBJECT_ID      = 2022-138AN
CENTER_NAME    = EARTH
REF_FRAME      = TEME
TIME_SYSTEM    = UTC
MEAN_ELEMENT_THEORY = SGP/SGP4

EPOCH          = 2026-03-03T16:53:21.111648
MEAN_MOTION    = 14.96723025
ECCENTRICITY   = .0022117
INCLINATION    = 87.3886
RA_OF_ASC_NODE = 168.3653
ARG_OF_PERICENTER = 167.4561
MEAN_ANOMALY   = 192.7226

EPHEMERIS_TYPE = 0
CLASSIFICATION_TYPE = U
NORAD_CAT_ID   = 54149
ELEMENT_SET_NO = 999
REV_AT_EPOCH   = 18303
BSTAR          = .45381E-3
MEAN_MOTION_DOT = .5236E-4
MEAN_MOTION_DDOT = 0

CCSDS_OMM_VERS = 2.0
CREATION_DATE  = 
ORIGINATOR     = 

OBJECT_NAME    = XRISM
OBJECT_ID      = 2023-137A
CENTER_NAME    = EARTH
REF_FRAME      = TEME
TIME_SYSTEM    = UTC
MEAN_ELEMENT_THEORY = SGP/SGP4

EPOCH          = 2026-03-03T19:54:02.114496
MEAN_MOTION    = 15.11419327
ECCENTRICITY   = .000817
INCLINATION    = 31.0031
RA_OF_ASC_NODE = 321.5673
ARG_OF_PERICENTER = 339.2113
MEAN_ANOMALY   = 20.8192

EPHEMERIS_TYPE = 0
CLASSIFICATION_TYPE = U
NORAD_CAT_ID   = 57800
ELEMENT_SET_NO = 999
REV_AT_EPOCH   = 13690
BSTAR          = .46956E-3
MEAN_MOTION_DOT = .8236E-4
MEAN_MOTION_DDOT = 0

CCSDS_OMM_VERS = 2.0
CREATION_DATE  = 
ORIGINATOR     = 

OBJECT_NAME    = ACS3
OBJECT_ID      = 2024-077B
CENTER_NAME    = EARTH
REF_FRAME      = TEME
TIME_SYSTEM    = UTC
MEAN_ELEMENT_THEORY = SGP/SGP4

EPOCH          = 2026-03-03T17:41:18.178944
MEAN_MOTION    = 13.89310612
ECCENTRICITY   = .0055273
INCLINATION    = 97.2111
RA_OF_ASC_NODE = 5.1871
ARG_OF_PERICENTER = 92.6994
MEAN_ANOMALY   = 268.0498

EPHEMERIS_TYPE = 0
CLASSIFICATION_TYPE = U
NORAD_CAT_ID   = 59588
ELEMENT_SET_NO = 999
REV_AT_EPOCH   = 9337
BSTAR          = .23356E-1
MEAN_MOTION_DOT = .28875E-3
MEAN_MOTION_DDOT = 0

CCSDS_OMM_VERS = 2.0
CREATION_DATE  = 
ORIGINATOR     = 

OBJECT_NAME    = SZ-21 MODULE
OBJECT_ID      = 2025-246C
CENTER_NAME    = EARTH
REF_FRAME      = TEME
TIME_SYSTEM    = UTC
MEAN_ELEMENT_THEORY = SGP/SGP4

EPOCH          = 2026-03-03T18:27:35.995968
MEAN_MOTION    = 15.68011820
ECCENTRICITY   = .0001447
INCLINATION    = 41.4730
RA_OF_ASC_NODE = 239.7929
ARG_OF_PERICENTER = 287.9355
MEAN_ANOMALY   = 72.1329

EPHEMERIS_TYPE = 0
CLASSIFICATION_TYPE = U
NORAD_CAT_ID   = 66515
ELEMENT_SET_NO = 999
REV_AT_EPOCH   = 1714
BSTAR          = .39281E-3
MEAN_MOTION_DOT = .44751E-3
MEAN_MOTION_DDOT = 0

